CCSDS_OMM_VERS = 2.0
CREATION_DATE  = 
ORIGINATOR     = 

OBJECT_NAME    = STARLINK-36808
OBJECT_ID      = 2026-035C
CENTER_NAME    = EARTH
REF_FRAME      = TEME
TIME_SYSTEM    = UTC
MEAN_ELEMENT_THEORY = SGP/SGP4

EPOCH          = 2026-03-17T19:35:53.201472
MEAN_MOTION    = 15.80887109
ECCENTRICITY   = .000111
INCLINATION    = 97.2865
RA_OF_ASC_NODE = 9.6236
ARG_OF_PERICENTER = 152.7389
MEAN_ANOMALY   = 207.3938

EPHEMERIS_TYPE = 0
CLASSIFICATION_TYPE = U
NORAD_CAT_ID   = 67881
ELEMENT_SET_NO = 999
REV_AT_EPOCH   = 512
BSTAR          = .14627E-2
MEAN_MOTION_DOT = .290505E-2
MEAN_MOTION_DDOT = 0

CCSDS_OMM_VERS = 2.0
CREATION_DATE  = 
ORIGINATOR     = 

OBJECT_NAME    = STARLINK-36817
OBJECT_ID      = 2026-035D
CENTER_NAME    = EARTH
REF_FRAME      = TEME
TIME_SYSTEM    = UTC
MEAN_ELEMENT_THEORY = SGP/SGP4

EPOCH          = 2026-03-17T19:32:38.736672
MEAN_MOTION    = 15.80883180
ECCENTRICITY   = .0001901
INCLINATION    = 97.2893
RA_OF_ASC_NODE = 9.6262
ARG_OF_PERICENTER = 130.5188
MEAN_ANOMALY   = 229.6246

EPHEMERIS_TYPE = 0
CLASSIFICATION_TYPE = U
NORAD_CAT_ID   = 67882
ELEMENT_SET_NO = 999
REV_AT_EPOCH   = 512
BSTAR          = .15774E-2
MEAN_MOTION_DOT = .314102E-2
MEAN_MOTION_DDOT = 0

CCSDS_OMM_VERS = 2.0
CREATION_DATE  = 
ORIGINATOR     = 

OBJECT_NAME    = STARLINK-36856
OBJECT_ID      = 2026-035E
CENTER_NAME    = EARTH
REF_FRAME      = TEME
TIME_SYSTEM    = UTC
MEAN_ELEMENT_THEORY = SGP/SGP4

EPOCH          = 2026-03-17T19:33:43.089984
MEAN_MOTION    = 15.80911368
ECCENTRICITY   = .0001533
INCLINATION    = 97.2884
RA_OF_ASC_NODE = 9.6252
ARG_OF_PERICENTER = 126.4228
MEAN_ANOMALY   = 233.7182

EPHEMERIS_TYPE = 0
CLASSIFICATION_TYPE = U
NORAD_CAT_ID   = 67883
ELEMENT_SET_NO = 999
REV_AT_EPOCH   = 512
BSTAR          = .1196E-2
MEAN_MOTION_DOT = .236296E-2
MEAN_MOTION_DDOT = 0

CCSDS_OMM_VERS = 2.0
CREATION_DATE  = 
ORIGINATOR     = 

OBJECT_NAME    = STARLINK-36842
OBJECT_ID      = 2026-035F
CENTER_NAME    = EARTH
REF_FRAME      = TEME
TIME_SYSTEM    = UTC
MEAN_ELEMENT_THEORY = SGP/SGP4

EPOCH          = 2026-03-17T20:00:01.999008
MEAN_MOTION    = 15.75167812
ECCENTRICITY   = .0001456
INCLINATION    = 97.2867
RA_OF_ASC_NODE = 9.6277
ARG_OF_PERICENTER = 95.8417
MEAN_ANOMALY   = 315.2889

EPHEMERIS_TYPE = 0
CLASSIFICATION_TYPE = U
NORAD_CAT_ID   = 67884
ELEMENT_SET_NO = 999
REV_AT_EPOCH   = 506
BSTAR          = -.49885E-3
MEAN_MOTION_DOT = -.73827E-3
MEAN_MOTION_DDOT = 0

CCSDS_OMM_VERS = 2.0
CREATION_DATE  = 
ORIGINATOR     = 

OBJECT_NAME    = STARLINK-36826
OBJECT_ID      = 2026-035G
CENTER_NAME    = EARTH
REF_FRAME      = TEME
TIME_SYSTEM    = UTC
MEAN_ELEMENT_THEORY = SGP/SGP4

EPOCH          = 2026-03-17T20:00:01.999008
MEAN_MOTION    = 15.75200022
ECCENTRICITY   = .0001211
INCLINATION    = 97.2856
RA_OF_ASC_NODE = 9.6468
ARG_OF_PERICENTER = 86.7332
MEAN_ANOMALY   = 14.2569

EPHEMERIS_TYPE = 0
CLASSIFICATION_TYPE = U
NORAD_CAT_ID   = 67885
ELEMENT_SET_NO = 999
REV_AT_EPOCH   = 506
BSTAR          = -.17959E-3
MEAN_MOTION_DOT = -.26843E-3
MEAN_MOTION_DDOT = 0

CCSDS_OMM_VERS = 2.0
CREATION_DATE  = 
ORIGINATOR     = 

OBJECT_NAME    = STARLINK-36390
OBJECT_ID      = 2026-035H
CENTER_NAME    = EARTH
REF_FRAME      = TEME
TIME_SYSTEM    = UTC
MEAN_ELEMENT_THEORY = SGP/SGP4

EPOCH          = 2026-03-17T20:00:01.999008
MEAN_MOTION    = 15.75231843
ECCENTRICITY   = .0001451
INCLINATION    = 97.2861
RA_OF_ASC_NODE = 9.6312
ARG_OF_PERICENTER = 101.5841
MEAN_ANOMALY   = 321.3838

EPHEMERIS_TYPE = 0
CLASSIFICATION_TYPE = U
NORAD_CAT_ID   = 67886
ELEMENT_SET_NO = 999
REV_AT_EPOCH   = 511
BSTAR          = -.43584E-3
MEAN_MOTION_DOT = -.64766E-3
MEAN_MOTION_DDOT = 0

CCSDS_OMM_VERS = 2.0
CREATION_DATE  = 
ORIGINATOR     = 

OBJECT_NAME    = STARLINK-36368
OBJECT_ID      = 2026-035J
CENTER_NAME    = EARTH
REF_FRAME      = TEME
TIME_SYSTEM    = UTC
MEAN_ELEMENT_THEORY = SGP/SGP4

EPOCH          = 2026-03-17T19:28:18.858432
MEAN_MOTION    = 15.80869984
ECCENTRICITY   = .000136
INCLINATION    = 97.2895
RA_OF_ASC_NODE = 9.6289
ARG_OF_PERICENTER = 73.3034
MEAN_ANOMALY   = 286.8384

EPHEMERIS_TYPE = 0
CLASSIFICATION_TYPE = U
NORAD_CAT_ID   = 67887
ELEMENT_SET_NO = 999
REV_AT_EPOCH   = 512
BSTAR          = .65002E-3
MEAN_MOTION_DOT = .1265E-2
MEAN_MOTION_DDOT = 0

CCSDS_OMM_VERS = 2.0
CREATION_DATE  = 
ORIGINATOR     = 

OBJECT_NAME    = STARLINK-36801
OBJECT_ID      = 2026-035K
CENTER_NAME    = EARTH
REF_FRAME      = TEME
TIME_SYSTEM    = UTC
MEAN_ELEMENT_THEORY = SGP/SGP4

EPOCH          = 2026-03-17T19:27:13.521024
MEAN_MOTION    = 15.80949799
ECCENTRICITY   = .0000951
INCLINATION    = 97.2887
RA_OF_ASC_NODE = 9.6295
ARG_OF_PERICENTER = 141.4097
MEAN_ANOMALY   = 218.7239

EPHEMERIS_TYPE = 0
CLASSIFICATION_TYPE = U
NORAD_CAT_ID   = 67888
ELEMENT_SET_NO = 999
REV_AT_EPOCH   = 512
BSTAR          = .18402E-2
MEAN_MOTION_DOT = .369978E-2
MEAN_MOTION_DDOT = 0

CCSDS_OMM_VERS = 2.0
CREATION_DATE  = 
ORIGINATOR     = 

OBJECT_NAME    = STARLINK-36372
OBJECT_ID      = 2026-035L
CENTER_NAME    = EARTH
REF_FRAME      = TEME
TIME_SYSTEM    = UTC
MEAN_ELEMENT_THEORY = SGP/SGP4

EPOCH          = 2026-03-17T19:25:04.231200
MEAN_MOTION    = 15.80898604
ECCENTRICITY   = .0001456
INCLINATION    = 97.2897
RA_OF_ASC_NODE = 9.6302
ARG_OF_PERICENTER = 85.9800
MEAN_ANOMALY   = 274.1635

EPHEMERIS_TYPE = 0
CLASSIFICATION_TYPE = U
NORAD_CAT_ID   = 67889
ELEMENT_SET_NO = 999
REV_AT_EPOCH   = 512
BSTAR          = .11385E-2
MEAN_MOTION_DOT = .224486E-2
MEAN_MOTION_DDOT = 0

CCSDS_OMM_VERS = 2.0
CREATION_DATE  = 
ORIGINATOR     = 

OBJECT_NAME    = STARLINK-36363
OBJECT_ID      = 2026-035M
CENTER_NAME    = EARTH
REF_FRAME      = TEME
TIME_SYSTEM    = UTC
MEAN_ELEMENT_THEORY = SGP/SGP4

EPOCH          = 2026-03-17T20:00:01.999008
MEAN_MOTION    = 15.75227263
ECCENTRICITY   = .0001357
INCLINATION    = 97.2867
RA_OF_ASC_NODE = 9.6394
ARG_OF_PERICENTER = 86.1827
MEAN_ANOMALY   = 356.7868

EPHEMERIS_TYPE = 0
CLASSIFICATION_TYPE = U
NORAD_CAT_ID   = 67890
ELEMENT_SET_NO = 999
REV_AT_EPOCH   = 506
BSTAR          = -.37333E-3
MEAN_MOTION_DOT = -.55544E-3
MEAN_MOTION_DDOT = 0

CCSDS_OMM_VERS = 2.0
CREATION_DATE  = 
ORIGINATOR     = 

OBJECT_NAME    = STARLINK-36816
OBJECT_ID      = 2026-035N
CENTER_NAME    = EARTH
REF_FRAME      = TEME
TIME_SYSTEM    = UTC
MEAN_ELEMENT_THEORY = SGP/SGP4

EPOCH          = 2026-03-17T19:10:59.899296
MEAN_MOTION    = 15.80898171
ECCENTRICITY   = .0001182
INCLINATION    = 97.2903
RA_OF_ASC_NODE = 9.6409
ARG_OF_PERICENTER = 123.6093
MEAN_ANOMALY   = 236.5288

EPHEMERIS_TYPE = 0
CLASSIFICATION_TYPE = U
NORAD_CAT_ID   = 67891
ELEMENT_SET_NO = 999
REV_AT_EPOCH   = 512
BSTAR          = .11779E-2
MEAN_MOTION_DOT = .232468E-2
MEAN_MOTION_DDOT = 0

CCSDS_OMM_VERS = 2.0
CREATION_DATE  = 
ORIGINATOR     = 

OBJECT_NAME    = STARLINK-36813
OBJECT_ID      = 2026-035P
CENTER_NAME    = EARTH
REF_FRAME      = TEME
TIME_SYSTEM    = UTC
MEAN_ELEMENT_THEORY = SGP/SGP4

EPOCH          = 2026-03-17T17:46:20.070912
MEAN_MOTION    = 15.80928935
ECCENTRICITY   = .0001147
INCLINATION    = 97.2909
RA_OF_ASC_NODE = 9.5662
ARG_OF_PERICENTER = 112.6602
MEAN_ANOMALY   = 247.4787

EPHEMERIS_TYPE = 0
CLASSIFICATION_TYPE = U
NORAD_CAT_ID   = 67892
ELEMENT_SET_NO = 999
REV_AT_EPOCH   = 511
BSTAR          = .13526E-2
MEAN_MOTION_DOT = .268469E-2
MEAN_MOTION_DDOT = 0

